{
    "links": {
        "self": "http://www.neowsapp.com/rest/v1/neo/3617391?api_key=iIulBulltgU6a56xZRHN4H3l9WmuAYTsLGpBGhQ2"
    },
    "id": "3617391",
    "neo_reference_id": "3617391",
    "name": "(2012 VJ46)",
    "designation": "2012 VJ46",
    "nasa_jpl_url": "http://ssd.jpl.nasa.gov/sbdb.cgi?sstr=3617391",
    "absolute_magnitude_h": 24.2,
    "estimated_diameter": {
        "kilometers": {
            "estimated_diameter_min": 0.0384197891,
            "estimated_diameter_max": 0.0859092601
        },
        "meters": {
            "estimated_diameter_min": 38.4197891064,
            "estimated_diameter_max": 85.9092601232
        },
        "miles": {
            "estimated_diameter_min": 0.0238729428,
            "estimated_diameter_max": 0.0533815229
        },
        "feet": {
            "estimated_diameter_min": 126.0491808919,
            "estimated_diameter_max": 281.8545369825
        }
    },
    "is_potentially_hazardous_asteroid": false,
    "close_approach_data": [
        {
            "close_approach_date": "2012-12-02",
            "close_approach_date_full": "2012-Dec-02 07:43",
            "epoch_date_close_approach": 1354434180000,
            "relative_velocity": {
                "kilometers_per_second": "7.35813274",
                "kilometers_per_hour": "26489.2778640646",
                "miles_per_hour": "16459.4071261462"
            },
            "miss_distance": {
                "astronomical": "0.0956010072",
                "lunar": "37.1887918008",
                "kilometers": "14301707.046974664",
                "miles": "8886668.6786878032"
            },
            "orbiting_body": "Earth"
        },
        {
            "close_approach_date": "2028-04-10",
            "close_approach_date_full": "2028-Apr-10 10:20",
            "epoch_date_close_approach": 1838974800000,
            "relative_velocity": {
                "kilometers_per_second": "14.3156282674",
                "kilometers_per_hour": "51536.2617627232",
                "miles_per_hour": "32022.6288713987"
            },
            "miss_distance": {
                "astronomical": "0.0212053177",
                "lunar": "8.2488685853",
                "kilometers": "3172270.360593299",
                "miles": "1971157.3982895662"
            },
            "orbiting_body": "Mars"
        }
    ],
    "orbital_data": {
        "orbit_id": "11",
        "orbit_determination_date": "2017-04-06 08:48:03",
        "first_observation_date": "2012-11-12",
        "last_observation_date": "2013-02-01",
        "data_arc_in_days": 81,
        "observations_used": 36,
        "orbit_uncertainty": "6",
        "minimum_orbit_intersection": ".0591197",
        "jupiter_tisserand_invariant": "3.232",
        "epoch_osculation": "2459000.5",
        "eccentricity": ".5775992532215612",
        "semi_major_axis": "2.468530840852602",
        "inclination": ".3830679634467156",
        "ascending_node_longitude": "52.41773736671167",
        "orbital_period": "1416.629440544508",
        "perihelion_distance": "1.042709270621746",
        "perihelion_argument": "33.76025007651496",
        "aphelion_distance": "3.894352411083457",
        "perihelion_time": "2459117.315050379577",
        "mean_anomaly": "330.3144542015987",
        "mean_motion": ".2541243247504635",
        "equinox": "J2000",
        "orbit_class": {
            "orbit_class_type": "AMO",
            "orbit_class_description": "Near-Earth asteroid orbits similar to that of 1221 Amor",
            "orbit_class_range": "1.017 AU < q (perihelion) < 1.3 AU"
        }
    },
    "is_sentry_object": false
}